start=new Date('2022-07-31T00:00:00.000Z').valueOf();
sats=[{"OBJECT_ID":"2020-019Y","EPOCH":"2022-07-30T13:16:31.465344","BSTAR":"-0.00005498000000","NORAD_CAT_ID":"45382","SEMIMAJOR_AXIS":"6925.350","DECAY_DATE":null,"ECCENTRICITY":"0.00012200","TLE_LINE1":"1 45382U 20019Y   22211.55314196 -.00001100  00000-0 -54980-4 0  9990","SITE":"AFETR","RCS_SIZE":"LARGE","INCLINATION":"53.0548","MEAN_ANOMALY":"277.0620","REF_FRAME":"TEME","MEAN_MOTION_DOT":"-0.00001100","PERIOD":"95.592","MEAN_ELEMENT_THEORY":"SGP4","FILE":"3525407","GP_ID":"209169008","MEAN_MOTION":"15.06399367","REV_AT_EPOCH":"13115","TIME_SYSTEM":"UTC","PERIAPSIS":"546.371","ARG_OF_PERICENTER":"83.0508","ELEMENT_SET_NO":"999","CLASSIFICATION_TYPE":"U","LAUNCH_DATE":"2020-03-18","APOAPSIS":"548.060","RA_OF_ASC_NODE":"303.9512","CENTER_NAME":"EARTH","COUNTRY_CODE":"US","MEAN_MOTION_DDOT":"0.0000000000000","TLE_LINE2":"2 45382  53.0548 303.9512 0001220  83.0508 277.0620 15.06399367131155","OBJECT_TYPE":"PAYLOAD","OBJECT_NAME":"STARLINK-1264","EPHEMERIS_TYPE":"0"},{"RCS_SIZE":"LARGE","SITE":"AFETR","INCLINATION":"53.0550","MEAN_ANOMALY":"262.6983","REF_FRAME":"TEME","OBJECT_ID":"2020-019Z","BSTAR":"0.00002783100000","EPOCH":"2022-07-30T15:14:39.560640","NORAD_CAT_ID":"45383","SEMIMAJOR_AXIS":"6925.379","DECAY_DATE":null,"ECCENTRICITY":"0.00014690","TLE_LINE1":"1 45383U 20019Z   22211.63518010  .00000133  00000-0  27831-4 0  9999","CENTER_NAME":"EARTH","MEAN_MOTION_DDOT":"0.0000000000000","COUNTRY_CODE":"US","TLE_LINE2":"2 45383  53.0550 303.6084 0001469  97.4172 262.6983 15.06390072131348","OBJECT_TYPE":"PAYLOAD","OBJECT_NAME":"STARLINK-1266","EPHEMERIS_TYPE":"0","PERIOD":"95.593","MEAN_ELEMENT_THEORY":"SGP4","MEAN_MOTION_DOT":"0.00000133","REV_AT_EPOCH":"13134","GP_ID":"209225213","FILE":"3525638","MEAN_MOTION":"15.06390072","TIME_SYSTEM":"UTC","PERIAPSIS":"546.227","ARG_OF_PERICENTER":"97.4172","ELEMENT_SET_NO":"999","LAUNCH_DATE":"2020-03-18","CLASSIFICATION_TYPE":"U","APOAPSIS":"548.261","RA_OF_ASC_NODE":"303.6084"},{"TLE_LINE1":"1 45384U 20019AA  22211.55682599  .00000510  00000-0  53149-4 0  9995","ECCENTRICITY":"0.00013930","DECAY_DATE":null,"SEMIMAJOR_AXIS":"6925.357","NORAD_CAT_ID":"45384","BSTAR":"0.00005314900000","EPOCH":"2022-07-30T13:21:49.765536","OBJECT_ID":"2020-019AA","REF_FRAME":"TEME","MEAN_ANOMALY":"274.9754","INCLINATION":"53.0551","SITE":"AFETR","RCS_SIZE":"LARGE","RA_OF_ASC_NODE":"303.9490","APOAPSIS":"548.187","LAUNCH_DATE":"2020-03-18","CLASSIFICATION_TYPE":"U","ELEMENT_SET_NO":"999","ARG_OF_PERICENTER":"85.1394","PERIAPSIS":"546.258","TIME_SYSTEM":"UTC","GP_ID":"209204023","MEAN_MOTION":"15.06397167","FILE":"3525588","REV_AT_EPOCH":"13133","PERIOD":"95.592","MEAN_ELEMENT_THEORY":"SGP4","MEAN_MOTION_DOT":"0.00000510","EPHEMERIS_TYPE":"0","OBJECT_NAME":"STARLINK-1267","OBJECT_TYPE":"PAYLOAD","TLE_LINE2":"2 45384  53.0551 303.9490 0001393  85.1394 274.9754 15.06397167131333","MEAN_MOTION_DDOT":"0.0000000000000","COUNTRY_CODE":"US","CENTER_NAME":"EARTH"},{"DECAY_DATE":null,"ECCENTRICITY":"0.00011560","TLE_LINE1":"1 45386U 20019AC  22211.56145434  .00000124  00000-0  27186-4 0  9993","OBJECT_ID":"2020-019AC","BSTAR":"0.00002718600000","EPOCH":"2022-07-30T13:28:29.654976","NORAD_CAT_ID":"45386","SEMIMAJOR_AXIS":"6925.361","REF_FRAME":"TEME","INCLINATION":"53.0543","MEAN_ANOMALY":"282.7446","SITE":"AFETR","RCS_SIZE":"LARGE","APOAPSIS":"548.027","RA_OF_ASC_NODE":"303.9398","ELEMENT_SET_NO":"999","CLASSIFICATION_TYPE":"U","LAUNCH_DATE":"2020-03-18","TIME_SYSTEM":"UTC","PERIAPSIS":"546.426","ARG_OF_PERICENTER":"77.3672","MEAN_ELEMENT_THEORY":"SGP4","PERIOD":"95.592","MEAN_MOTION_DOT":"0.00000124","GP_ID":"209204360","REV_AT_EPOCH":"13133","FILE":"3525588","MEAN_MOTION":"15.06395900","OBJECT_TYPE":"PAYLOAD","OBJECT_NAME":"STARLINK-1272","EPHEMERIS_TYPE":"0","TLE_LINE2":"2 45386  53.0543 303.9398 0001156  77.3672 282.7446 15.06395900131330","MEAN_MOTION_DDOT":"0.0000000000000","COUNTRY_CODE":"US","CENTER_NAME":"EARTH"},{"TLE_LINE1":"1 45387U 20019AD  22211.64992322 -.00001440  00000-0 -77789-4 0  9997","DECAY_DATE":null,"ECCENTRICITY":"0.00014230","NORAD_CAT_ID":"45387","SEMIMAJOR_AXIS":"6925.368","OBJECT_ID":"2020-019AD","EPOCH":"2022-07-30T15:35:53.366208","BSTAR":"-0.00007778900000","MEAN_ANOMALY":"273.5510","INCLINATION":"53.0556","RCS_SIZE":"LARGE","SITE":"AFETR","REF_FRAME":"TEME","PERIAPSIS":"546.248","ARG_OF_PERICENTER":"86.5642","TIME_SYSTEM":"UTC","GP_ID":"209224463","FILE":"3525638","MEAN_MOTION":"15.06393589","REV_AT_EPOCH":"13134","PERIOD":"95.593","MEAN_MOTION_DOT":"-0.00001440","MEAN_ELEMENT_THEORY":"SGP4","APOAPSIS":"548.219","RA_OF_ASC_NODE":"303.5298","LAUNCH_DATE":"2020-03-18","CLASSIFICATION_TYPE":"U","ELEMENT_SET_NO":"999","COUNTRY_CODE":"US","MEAN_MOTION_DDOT":"0.0000000000000","CENTER_NAME":"EARTH","OBJECT_NAME":"STARLINK-1274","EPHEMERIS_TYPE":"0","OBJECT_TYPE":"PAYLOAD","TLE_LINE2":"2 45387  53.0556 303.5298 0001423  86.5642 273.5510 15.06393589131348"},{"REF_FRAME":"TEME","SITE":"AFETR","RCS_SIZE":"LARGE","INCLINATION":"53.0556","MEAN_ANOMALY":"274.6555","OBJECT_ID":"2020-019AE","BSTAR":"-0.00009286900000","EPOCH":"2022-07-30T18:01:50.675808","NORAD_CAT_ID":"45388","SEMIMAJOR_AXIS":"6925.349","DECAY_DATE":null,"ECCENTRICITY":"0.00011780","TLE_LINE1":"1 45388U 20019AE  22211.75128097 -.00001664  00000-0 -92869-4 0  9994","TLE_LINE2":"2 45388  53.0556 323.0731 0001178  85.4568 274.6555 15.06399902131076","OBJECT_TYPE":"PAYLOAD","OBJECT_NAME":"STARLINK-1280","EPHEMERIS_TYPE":"0","CENTER_NAME":"EARTH","MEAN_MOTION_DDOT":"0.0000000000000","COUNTRY_CODE":"US","ELEMENT_SET_NO":"999","LAUNCH_DATE":"2020-03-18","CLASSIFICATION_TYPE":"U","APOAPSIS":"548.030","RA_OF_ASC_NODE":"323.0731","PERIOD":"95.592","MEAN_ELEMENT_THEORY":"SGP4","MEAN_MOTION_DOT":"-0.00001664","GP_ID":"209224714","FILE":"3525638","REV_AT_EPOCH":"13107","MEAN_MOTION":"15.06399902","TIME_SYSTEM":"UTC","PERIAPSIS":"546.398","ARG_OF_PERICENTER":"85.4568"},{"ELEMENT_SET_NO":"999","CLASSIFICATION_TYPE":"U","LAUNCH_DATE":"2020-03-18","APOAPSIS":"548.235","RA_OF_ASC_NODE":"303.7756","PERIOD":"95.592","MEAN_ELEMENT_THEORY":"SGP4","MEAN_MOTION_DOT":"0.00000437","FILE":"3525638","GP_ID":"209224965","MEAN_MOTION":"15.06394695","REV_AT_EPOCH":"13134","TIME_SYSTEM":"UTC","PERIAPSIS":"546.224","ARG_OF_PERICENTER":"78.0874","TLE_LINE2":"2 45389  53.0555 303.7756 0001452  78.0874 282.0278 15.06394695131340","OBJECT_TYPE":"PAYLOAD","OBJECT_NAME":"STARLINK-1283","EPHEMERIS_TYPE":"0","CENTER_NAME":"EARTH","COUNTRY_CODE":"US","MEAN_MOTION_DDOT":"0.0000000000000","OBJECT_ID":"2020-019AF","BSTAR":"0.00004826600000","EPOCH":"2022-07-30T14:21:34.559424","NORAD_CAT_ID":"45389","SEMIMAJOR_AXIS":"6925.365","DECAY_DATE":null,"ECCENTRICITY":"0.00014520","TLE_LINE1":"1 45389U 20019AF  22211.59831666  .00000437  00000-0  48266-4 0  9997","REF_FRAME":"TEME","RCS_SIZE":"LARGE","SITE":"AFETR","INCLINATION":"53.0555","MEAN_ANOMALY":"282.0278"},{"EPHEMERIS_TYPE":"0","OBJECT_NAME":"STARLINK-1284","OBJECT_TYPE":"PAYLOAD","TLE_LINE2":"2 45390  53.0546 303.5723 0001301  80.0950 280.0186 15.06393677131340","COUNTRY_CODE":"US","MEAN_MOTION_DDOT":"0.0000000000000","CENTER_NAME":"EARTH","RA_OF_ASC_NODE":"303.5723","APOAPSIS":"548.134","LAUNCH_DATE":"2020-03-18","CLASSIFICATION_TYPE":"U","ELEMENT_SET_NO":"999","ARG_OF_PERICENTER":"80.0950","PERIAPSIS":"546.332","TIME_SYSTEM":"UTC","GP_ID":"209223713","REV_AT_EPOCH":"13134","FILE":"3525638","MEAN_MOTION":"15.06393677","PERIOD":"95.593","MEAN_MOTION_DOT":"-0.00000032","MEAN_ELEMENT_THEORY":"SGP4","REF_FRAME":"TEME","MEAN_ANOMALY":"280.0186","INCLINATION":"53.0546","SITE":"AFETR","RCS_SIZE":"LARGE","TLE_LINE1":"1 45390U 20019AG  22211.63886335 -.00000032  00000-0  16732-4 0  9992","DECAY_DATE":null,"ECCENTRICITY":"0.00013010","SEMIMAJOR_AXIS":"6925.368","NORAD_CAT_ID":"45390","EPOCH":"2022-07-30T15:19:57.793440","BSTAR":"0.00001673200000","OBJECT_ID":"2020-019AG"},{"TLE_LINE2":"2 45391  53.0561 303.5132 0001491  94.8220 265.2939 15.06390721131073","EPHEMERIS_TYPE":"0","OBJECT_NAME":"STARLINK-1289","OBJECT_TYPE":"PAYLOAD","CENTER_NAME":"EARTH","COUNTRY_CODE":"US","MEAN_MOTION_DDOT":"0.0000000000000","CLASSIFICATION_TYPE":"U","LAUNCH_DATE":"2020-03-18","ELEMENT_SET_NO":"999","RA_OF_ASC_NODE":"303.5132","APOAPSIS":"548.275","GP_ID":"209223963","FILE":"3525638","REV_AT_EPOCH":"13107","MEAN_MOTION":"15.06390721","MEAN_MOTION_DOT":"-0.00001895","PERIOD":"95.593","MEAN_ELEMENT_THEORY":"SGP4","ARG_OF_PERICENTER":"94.8220","PERIAPSIS":"546.209","TIME_SYSTEM":"UTC","REF_FRAME":"TEME","SITE":"AFETR","RCS_SIZE":"LARGE","MEAN_ANOMALY":"265.2939","INCLINATION":"53.0561","SEMIMAJOR_AXIS":"6925.377","NORAD_CAT_ID":"45391","EPOCH":"2022-07-30T15:39:50.015808","BSTAR":"-0.00010836000000","OBJECT_ID":"2020-019AH","TLE_LINE1":"1 45391U 20019AH  22211.65266222 -.00001895  00000-0 -10836-3 0  9999","DECAY_DATE":null,"ECCENTRICITY":"0.00014910"},{"ELEMENT_SET_NO":"999","CLASSIFICATION_TYPE":"U","LAUNCH_DATE":"2020-03-18","APOAPSIS":"520.994","RA_OF_ASC_NODE":"289.8735","MEAN_MOTION_DOT":"0.00006972","PERIOD":"95.028","MEAN_ELEMENT_THEORY":"SGP4","GP_ID":"209225214","FILE":"3525638","MEAN_MOTION":"15.15336508","REV_AT_EPOCH":"13121","TIME_SYSTEM":"UTC","PERIAPSIS":"518.924","ARG_OF_PERICENTER":"134.5036","TLE_LINE2":"2 45392  52.9950 289.8735 0001500 134.5036 225.6078 15.15336508131210","OBJECT_TYPE":"PAYLOAD","OBJECT_NAME":"STARLINK-1290","EPHEMERIS_TYPE":"0","CENTER_NAME":"EARTH","MEAN_MOTION_DDOT":"0.0000000000000","COUNTRY_CODE":"US","OBJECT_ID":"2020-019AJ","EPOCH":"2022-07-30T15:46:51.878496","BSTAR":"0.00038123000000","NORAD_CAT_ID":"45392","SEMIMAJOR_AXIS":"6898.094","ECCENTRICITY":"0.00015000","DECAY_DATE":null,"TLE_LINE1":"1 45392U 20019AJ  22211.65754489  .00006972  00000-0  38123-3 0  9995","REF_FRAME":"TEME","RCS_SIZE":"LARGE","SITE":"AFETR","INCLINATION":"52.9950","MEAN_ANOMALY":"225.6078"}];
